STARLINK-32793          
1 62874U 25022W   26068.46288376  .00035970  00000+0  12214-2 0  9999
2 62874  53.1580 130.8017 0001319  72.4699 287.6446 15.30182610 61867
TEVEL2-5                
1 63214U 25052E   26068.96660006  .00021339  00000+0  71765-3 0  9991
2 63214  97.4013 325.3677 0004700  95.3936 264.7842 15.30817434 54919
