[{"OBJECT_NAME":"STARLINK-32793","OBJECT_ID":"2025-022W","EPOCH":"2026-03-09T11:06:33.156864","MEAN_MOTION":15.3018261,"ECCENTRICITY":0.00013197,"INCLINATION":53.158,"RA_OF_ASC_NODE":130.8017,"ARG_OF_PERICENTER":72.4699,"MEAN_ANOMALY":287.6446,"EPHEMERIS_TYPE":0,"CLASSIFICATION_TYPE":"U","NORAD_CAT_ID":62874,"ELEMENT_SET_NO":999,"REV_AT_EPOCH":6186,"BSTAR":0.001221378,"MEAN_MOTION_DOT":0.0003597,"MEAN_MOTION_DDOT":0},{"OBJECT_NAME":"TEVEL2-5","OBJECT_ID":"2025-052E","EPOCH":"2026-03-09T23:11:54.246048","MEAN_MOTION":15.30817434,"ECCENTRICITY":0.00047002,"INCLINATION":97.4013,"RA_OF_ASC_NODE":325.3677,"ARG_OF_PERICENTER":95.3936,"MEAN_ANOMALY":264.7842,"EPHEMERIS_TYPE":0,"CLASSIFICATION_TYPE":"U","NORAD_CAT_ID":63214,"ELEMENT_SET_NO":999,"REV_AT_EPOCH":5491,"BSTAR":0.00071764727,"MEAN_MOTION_DOT":0.00021339,"MEAN_MOTION_DDOT":0}]
